GLOBALSTAR M084         
1 38040U 11080A   25166.63629654 -.00000083  00000+0  11821-3 0  9993
2 38040  52.0024  53.1952 0001004  56.3281 320.1437 12.62266812622472
GLOBALSTAR M080         
1 38041U 11080B   25166.40440321 -.00000087  00000+0  92741-4 0  9996
2 38041  52.0075  55.4923 0000819 100.3350  71.5468 12.62263422622567
GLOBALSTAR M082         
1 38042U 11080C   25166.85987250 -.00000095  00000+0  51713-4 0  9996
2 38042  52.0094   9.5671 0000879 113.1517 260.0340 12.62266712623506
GLOBALSTAR M092         
1 38043U 11080D   25166.55156594 -.00000099  00000+0  23922-4 0  9998
2 38043  52.0080 100.8804 0000545  48.7354 122.7712 12.62264243621745
GLOBALSTAR M090         
1 38044U 11080E   25166.57395359 -.00000101  00000+0  15491-4 0  9991
2 38044  52.0141   4.2729 0000739  98.3789 295.8918 12.62273599623459
GLOBALSTAR M086         
1 38045U 11080F   25166.60053389 -.00000091  00000+0  71394-4 0  9992
2 38045  51.9918   4.7154 0000801   7.9484  27.5939 12.62271574623369
GLOBALSTAR M097         
1 39072U 13005A   25166.61927582 -.00000088  00000+0  86490-4 0  9997
2 39072  52.0053 279.2038 0000458 139.5989 220.4912 12.62272457570617
GLOBALSTAR M093         
1 39073U 13005B   25166.59290432 -.00000080  00000+0  13411-3 0  9996
2 39073  51.9814 272.5898 0000498 145.6095 214.4803 12.62265453570565
